{
  "type": "FeatureCollection",
  "features": [
    {
      "type": "Feature",
      "properties": {
        "norad_id": 34760,
        "name": "COSMOS 2251 DEB",
        "group": "cosmos-2251-debris",
        "lat": 63.69552346384932,
        "lon": -4.191560152029795,
        "alt_km": 779.0739623146164,
        "timestamp": "2025-12-02T13:52:17.656425+00:00",
        "meta_object_name": "COSMOS 2251 DEB",
        "meta_object_id": "1993-036AAE",
        "meta_epoch": "2025-12-01T05:29:20.078304",
        "meta_mean_motion": 14.1951855,
        "meta_eccentricity": 0.0096194,
        "meta_inclination": 74.0625,
        "meta_ra_of_asc_node": 322.9016,
        "meta_arg_of_pericenter": 17.7277,
        "meta_mean_anomaly": 357.7821,
        "meta_ephemeris_type": 0,
        "meta_classification_type": "U",
        "meta_norad_cat_id": 34760,
        "meta_element_set_no": 999,
        "meta_rev_at_epoch": 86525,
        "meta_bstar": 0.00076737,
        "meta_mean_motion_dot": 1.669e-05,
        "meta_mean_motion_ddot": 0,
        "tle_line1": "1 34760U 93036AAE 25335.22870461  .00001669  00000+0  76737-3 0  9993",
        "tle_line2": "2 34760  74.0625 322.9016 0096194  17.7277 357.7821 14.19518550865257"
      },
      "geometry": {
        "type": "Point",
        "coordinates": [
          -4.191560152029795,
          63.69552346384932
        ]
      }
    },
    {
      "type": "Feature",
      "properties": {
        "norad_id": 34761,
        "name": "COSMOS 2251 DEB",
        "group": "cosmos-2251-debris",
        "lat": 30.997862768350238,
        "lon": 31.425676595199786,
        "alt_km": 740.0094606894072,
        "timestamp": "2025-12-02T13:52:17.656435+00:00",
        "meta_object_name": "COSMOS 2251 DEB",
        "meta_object_id": "1993-036AAF",
        "meta_epoch": "2025-12-01T21:01:32.068704",
        "meta_mean_motion": 14.37989243,
        "meta_eccentricity": 0.00360815,
        "meta_inclination": 74.0289,
        "meta_ra_of_asc_node": 22.8107,
        "meta_arg_of_pericenter": 60.506,
        "meta_mean_anomaly": 299.9684,
        "meta_ephemeris_type": 0,
        "meta_classification_type": "U",
        "meta_norad_cat_id": 34761,
        "meta_element_set_no": 999,
        "meta_rev_at_epoch": 87493,
        "meta_bstar": 0.00062523687,
        "meta_mean_motion_dot": 1.879e-05,
        "meta_mean_motion_ddot": 0,
        "tle_line1": "1 34761U 93036AAF 25335.87606561  .00001879  00000+0  62524-3 0  9995",
        "tle_line2": "2 34761  74.0289  22.8107 0036081  60.5060 299.9684 14.37989243874936"
      },
      "geometry": {
        "type": "Point",
        "coordinates": [
          31.425676595199786,
          30.997862768350238
        ]
      }
    },
    {
      "type": "Feature",
      "properties": {
        "norad_id": 34784,
        "name": "COSMOS 2251 DEB",
        "group": "cosmos-2251-debris",
        "lat": 25.574074977428214,
        "lon": 155.91932367874062,
        "alt_km": 654.5172372330335,
        "timestamp": "2025-12-02T13:52:17.656461+00:00",
        "meta_object_name": "COSMOS 2251 DEB",
        "meta_object_id": "1993-036AAM",
        "meta_epoch": "2025-12-01T10:52:25.648896",
        "meta_mean_motion": 14.60696755,
        "meta_eccentricity": 0.00498837,
        "meta_inclination": 74.0077,
        "meta_ra_of_asc_node": 345.9597,
        "meta_arg_of_pericenter": 158.6114,
        "meta_mean_anomaly": 201.7153,
        "meta_ephemeris_type": 0,
        "meta_classification_type": "U",
        "meta_norad_cat_id": 34784,
        "meta_element_set_no": 999,
        "meta_rev_at_epoch": 88370,
        "meta_bstar": 0.00052029287,
        "meta_mean_motion_dot": 2.55e-05,
        "meta_mean_motion_ddot": 0,
        "tle_line1": "1 34784U 93036AAM 25335.45307464  .00002550  00000+0  52029-3 0  9990",
        "tle_line2": "2 34784  74.0077 345.9597 0049883 158.6114 201.7153 14.60696755883707"
      },
      "geometry": {
        "type": "Point",
        "coordinates": [
          155.91932367874062,
          25.574074977428214
        ]
      }
    },
    {
      "type": "Feature",
      "properties": {
        "norad_id": 34790,
        "name": "COSMOS 2251 DEB",
        "group": "cosmos-2251-debris",
        "lat": 19.023082174367865,
        "lon": 76.34403426791945,
        "alt_km": 879.8677078617848,
        "timestamp": "2025-12-02T13:52:17.656475+00:00",
        "meta_object_name": "COSMOS 2251 DEB",
        "meta_object_id": "1993-036AAT",
        "meta_epoch": "2025-12-02T05:24:05.380128",
        "meta_mean_motion": 14.24566008,
        "meta_eccentricity": 0.01006836,
        "meta_inclination": 74.0546,
        "meta_ra_of_asc_node": 262.636,
        "meta_arg_of_pericenter": 326.4812,
        "meta_mean_anomaly": 184.6782,
        "meta_ephemeris_type": 0,
        "meta_classification_type": "U",
        "meta_norad_cat_id": 34790,
        "meta_element_set_no": 999,
        "meta_rev_at_epoch": 86423,
        "meta_bstar": 0.0013598566,
        "meta_mean_motion_dot": 3.302e-05,
        "meta_mean_motion_ddot": 0,
        "tle_line1": "1 34790U 93036AAT 25336.22506227  .00003302  00000+0  13599-2 0  9995",
        "tle_line2": "2 34790  74.0546 262.6360 0100683 326.4812 184.6782 14.24566008864235"
      },
      "geometry": {
        "type": "Point",
        "coordinates": [
          76.34403426791945,
          19.023082174367865
        ]
      }
    },
    {
      "type": "Feature",
      "properties": {
        "norad_id": 34792,
        "name": "COSMOS 2251 DEB",
        "group": "cosmos-2251-debris",
        "lat": 42.927700314558344,
        "lon": -155.54654866614928,
        "alt_km": 707.6300826105798,
        "timestamp": "2025-12-02T13:52:17.656487+00:00",
        "meta_object_name": "COSMOS 2251 DEB",
        "meta_object_id": "1993-036AAV",
        "meta_epoch": "2025-12-02T01:09:50.525280",
        "meta_mean_motion": 14.55818858,
        "meta_eccentricity": 0.00126399,
        "meta_inclination": 74.018,
        "meta_ra_of_asc_node": 189.997,
        "meta_arg_of_pericenter": 283.5619,
        "meta_mean_anomaly": 227.655,
        "meta_ephemeris_type": 0,
        "meta_classification_type": "U",
        "meta_norad_cat_id": 34792,
        "meta_element_set_no": 999,
        "meta_rev_at_epoch": 87494,
        "meta_bstar": 0.00097442055,
        "meta_mean_motion_dot": 4.249e-05,
        "meta_mean_motion_ddot": 0,
        "tle_line1": "1 34792U 93036AAV 25336.04850145  .00004249  00000+0  97442-3 0  9999",
        "tle_line2": "2 34792  74.0180 189.9970 0012639 283.5619 227.6550 14.55818858874947"
      },
      "geometry": {
        "type": "Point",
        "coordinates": [
          -155.54654866614928,
          42.927700314558344
        ]
      }
    },
    {
      "type": "Feature",
      "properties": {
        "norad_id": 34793,
        "name": "COSMOS 2251 DEB",
        "group": "cosmos-2251-debris",
        "lat": 73.33041002524483,
        "lon": 15.789104397262435,
        "alt_km": 724.3689413597722,
        "timestamp": "2025-12-02T13:52:17.656497+00:00",
        "meta_object_name": "COSMOS 2251 DEB",
        "meta_object_id": "1993-036AAW",
        "meta_epoch": "2025-12-02T05:47:13.845408",
        "meta_mean_motion": 14.38614859,
        "meta_eccentricity": 0.00499352,
        "meta_inclination": 74.0026,
        "meta_ra_of_asc_node": 269.7616,
        "meta_arg_of_pericenter": 66.7157,
        "meta_mean_anomaly": 83.8684,
        "meta_ephemeris_type": 0,
        "meta_classification_type": "U",
        "meta_norad_cat_id": 34793,
        "meta_element_set_no": 999,
        "meta_rev_at_epoch": 87179,
        "meta_bstar": 0.00036481418,
        "meta_mean_motion_dot": 1.107e-05,
        "meta_mean_motion_ddot": 0,
        "tle_line1": "1 34793U 93036AAW 25336.24113247  .00001107  00000+0  36481-3 0  9993",
        "tle_line2": "2 34793  74.0026 269.7616 0049935  66.7157  83.8684 14.38614859871794"
      },
      "geometry": {
        "type": "Point",
        "coordinates": [
          15.789104397262435,
          73.33041002524483
        ]
      }
    },
    {
      "type": "Feature",
      "properties": {
        "norad_id": 34796,
        "name": "COSMOS 2251 DEB",
        "group": "cosmos-2251-debris",
        "lat": -2.0129692120788523,
        "lon": 55.9711238939401,
        "alt_km": 798.8369853575123,
        "timestamp": "2025-12-02T13:52:17.656508+00:00",
        "meta_object_name": "COSMOS 2251 DEB",
        "meta_object_id": "1993-036AAZ",
        "meta_epoch": "2025-12-01T23:50:12.131808",
        "meta_mean_motion": 14.48591694,
        "meta_eccentricity": 0.01000709,
        "meta_inclination": 74.031,
        "meta_ra_of_asc_node": 236.4902,
        "meta_arg_of_pericenter": 340.9076,
        "meta_mean_anomaly": 33.126,
        "meta_ephemeris_type": 0,
        "meta_classification_type": "U",
        "meta_norad_cat_id": 34796,
        "meta_element_set_no": 999,
        "meta_rev_at_epoch": 87872,
        "meta_bstar": 0.00088662397,
        "meta_mean_motion_dot": 3.524e-05,
        "meta_mean_motion_ddot": 0,
        "tle_line1": "1 34796U 93036AAZ 25335.99319597  .00003524  00000+0  88662-3 0  9996",
        "tle_line2": "2 34796  74.0310 236.4902 0100070 340.9076  33.1260 14.48591694878727"
      },
      "geometry": {
        "type": "Point",
        "coordinates": [
          55.9711238939401,
          -2.0129692120788523
        ]
      }
    }
  ]
}